{
  "type": "FeatureCollection",
  "features": [
    {
      "type": "Feature",
      "properties": {
        "norad_id": 19071,
        "name": "OSCAR 32",
        "group": "nnss",
        "lat": -15.600551923745503,
        "lon": -163.87906776025787,
        "alt_km": 1017.9830913026017,
        "timestamp": "2025-12-02T15:49:07.457962+00:00",
        "meta_object_name": "OSCAR 32",
        "meta_object_id": "1988-033B",
        "meta_epoch": "2025-12-02T04:19:01.015104",
        "meta_mean_motion": 13.27951754,
        "meta_eccentricity": 0.0187479,
        "meta_inclination": 90.3228,
        "meta_ra_of_asc_node": 16.1961,
        "meta_arg_of_pericenter": 196.1591,
        "meta_mean_anomaly": 229.5641,
        "meta_ephemeris_type": 0,
        "meta_classification_type": "U",
        "meta_norad_cat_id": 19071,
        "meta_element_set_no": 999,
        "meta_rev_at_epoch": 82125,
        "meta_bstar": 0.00016986841,
        "meta_mean_motion_dot": 9.2e-07,
        "meta_mean_motion_ddot": 0,
        "tle_line1": "1 19071U 88033B   25336.17987286  .00000092  00000+0  16987-3 0  9991",
        "tle_line2": "2 19071  90.3228  16.1961 0187479 196.1591 229.5641 13.27951754821257"
      },
      "geometry": {
        "type": "Point",
        "coordinates": [
          -163.87906776025787,
          -15.600551923745503
        ]
      }
    },
    {
      "type": "Feature",
      "properties": {
        "norad_id": 19223,
        "name": "NOVA 2",
        "group": "nnss",
        "lat": -34.69165156318467,
        "lon": -101.7063129103358,
        "alt_km": 1203.1693468988933,
        "timestamp": "2025-12-02T15:49:07.457973+00:00",
        "meta_object_name": "NOVA 2",
        "meta_object_id": "1988-052A",
        "meta_epoch": "2025-12-02T07:46:37.058592",
        "meta_mean_motion": 13.2293391,
        "meta_eccentricity": 0.00314134,
        "meta_inclination": 89.9873,
        "meta_ra_of_asc_node": 78.2853,
        "meta_arg_of_pericenter": 44.9309,
        "meta_mean_anomaly": 14.7161,
        "meta_ephemeris_type": 0,
        "meta_classification_type": "U",
        "meta_norad_cat_id": 19223,
        "meta_element_set_no": 999,
        "meta_rev_at_epoch": 80810,
        "meta_bstar": 0.00014832119,
        "meta_mean_motion_dot": 7.1e-07,
        "meta_mean_motion_ddot": 0,
        "tle_line1": "1 19223U 88052A   25336.32404003  .00000071  00000+0  14832-3 0  9993",
        "tle_line2": "2 19223  89.9873  78.2853 0031413  44.9309  14.7161 13.22933910808107"
      },
      "geometry": {
        "type": "Point",
        "coordinates": [
          -101.7063129103358,
          -34.69165156318467
        ]
      }
    },
    {
      "type": "Feature",
      "properties": {
        "norad_id": 19419,
        "name": "OSCAR 25",
        "group": "nnss",
        "lat": -62.382310809435594,
        "lon": 20.27913699698695,
        "alt_km": 1041.6173297553996,
        "timestamp": "2025-12-02T15:49:07.457998+00:00",
        "meta_object_name": "OSCAR 25",
        "meta_object_id": "1988-074A",
        "meta_epoch": "2025-12-02T03:54:17.559936",
        "meta_mean_motion": 13.42620129,
        "meta_eccentricity": 0.00942054,
        "meta_inclination": 90.0358,
        "meta_ra_of_asc_node": 20.2089,
        "meta_arg_of_pericenter": 276.5776,
        "meta_mean_anomaly": 142.7359,
        "meta_ephemeris_type": 0,
        "meta_classification_type": "U",
        "meta_norad_cat_id": 19419,
        "meta_element_set_no": 999,
        "meta_rev_at_epoch": 82498,
        "meta_bstar": 0.0002107382,
        "meta_mean_motion_dot": 1.31e-06,
        "meta_mean_motion_ddot": 0,
        "tle_line1": "1 19419U 88074A   25336.16270324  .00000131  00000+0  21074-3 0  9996",
        "tle_line2": "2 19419  90.0358  20.2089 0094205 276.5776 142.7359 13.42620129824984"
      },
      "geometry": {
        "type": "Point",
        "coordinates": [
          20.27913699698695,
          -62.382310809435594
        ]
      }
    },
    {
      "type": "Feature",
      "properties": {
        "norad_id": 19420,
        "name": "OSCAR 31",
        "group": "nnss",
        "lat": -1.4882221976725114,
        "lon": -159.4419161517957,
        "alt_km": 1099.6358944269832,
        "timestamp": "2025-12-02T15:49:07.458012+00:00",
        "meta_object_name": "OSCAR 31",
        "meta_object_id": "1988-074B",
        "meta_epoch": "2025-12-02T04:29:46.788576",
        "meta_mean_motion": 13.42581908,
        "meta_eccentricity": 0.00924247,
        "meta_inclination": 90.0374,
        "meta_ra_of_asc_node": 20.5573,
        "meta_arg_of_pericenter": 270.6149,
        "meta_mean_anomaly": 152.9738,
        "meta_ephemeris_type": 0,
        "meta_classification_type": "U",
        "meta_norad_cat_id": 19420,
        "meta_element_set_no": 999,
        "meta_rev_at_epoch": 82509,
        "meta_bstar": 0.00017990771,
        "meta_mean_motion_dot": 1.13e-06,
        "meta_mean_motion_ddot": 0,
        "tle_line1": "1 19420U 88074B   25336.18734709  .00000113  00000+0  17991-3 0  9995",
        "tle_line2": "2 19420  90.0374  20.5573 0092424 270.6149 152.9738 13.42581908825093"
      },
      "geometry": {
        "type": "Point",
        "coordinates": [
          -159.4419161517957,
          -1.4882221976725114
        ]
      }
    }
  ]
}